KUIPER-00035            
1 63748U 25088AA  25215.58335648 -.00039647  00000+0 -33966-2 0  9997
2 63748  51.8904 359.3428 0005512  56.5060 209.8188 14.97089741  3207
KUIPER-00037            
1 63749U 25088AB  25215.58335648 -.00984604  00000+0 -85072-1 0  9994
2 63749  51.8942 358.5558 0005264  22.5849 168.2819 14.99574831  4477
KUIPER-00038            
1 63750U 25088AC  25215.58335648 -.00022857  00000+0 -71280-3 0  9997
2 63750  51.8729 351.1269 0004916  77.8839 195.1524 15.32279937  5611
KUIPER-00039            
1 64500U 25134A   25215.14879146  .00026805  00000+0  78101-3 0  9995
2 64500  51.8675 134.9436 0007245 257.0927 102.9249 15.35173355  7494
KUIPER-00040            
1 64501U 25134B   25215.58335648  .00035104  00000+0  18044-2 0  9999
2 64501  51.8785 134.2287 0012512 267.8696   3.1511 15.16081858  5946
KUIPER-00041            
1 64502U 25134C   25215.04484859  .00015148  00000+0  78587-3 0  9995
2 64502  51.8723 137.1166 0008268 261.7380  98.2660 15.16298007  7457
KUIPER-00042            
1 64503U 25134D   25215.58335648 -.00524326  00000+0 -22715-1 0  9991
2 64503  51.8706 133.3883 0009755 255.0636  80.8688 15.24192132  5822
KUIPER-00043            
1 64504U 25134E   25215.15150274  .00024648  00000+0  72466-3 0  9995
2 64504  51.8685 134.9659 0007800 254.4558 105.5566 15.34933126  7494
